[{"OBJECT_NAME":"STARLINK-6110","OBJECT_ID":"2023-083AH","EPOCH":"2026-03-09T22:00:01.999584","MEAN_MOTION":15.1071432,"ECCENTRICITY":0.00020054,"INCLINATION":43.0011,"RA_OF_ASC_NODE":67.6846,"ARG_OF_PERICENTER":266.7721,"MEAN_ANOMALY":68.029,"EPHEMERIS_TYPE":0,"CLASSIFICATION_TYPE":"U","NORAD_CAT_ID":56907,"ELEMENT_SET_NO":999,"REV_AT_EPOCH":567,"BSTAR":0.0045484576,"MEAN_MOTION_DOT":0.00077304,"MEAN_MOTION_DDOT":0},{"OBJECT_NAME":"DELTA 1 DEB","OBJECT_ID":"1978-026BU","EPOCH":"2026-03-09T11:22:20.910432","MEAN_MOTION":14.96481719,"ECCENTRICITY":0.00669454,"INCLINATION":98.7967,"RA_OF_ASC_NODE":254.5698,"ARG_OF_PERICENTER":166.8222,"MEAN_ANOMALY":193.4765,"EPHEMERIS_TYPE":0,"CLASSIFICATION_TYPE":"U","NORAD_CAT_ID":12227,"ELEMENT_SET_NO":999,"REV_AT_EPOCH":38498,"BSTAR":0.0006297912,"MEAN_MOTION_DOT":7.412e-5,"MEAN_MOTION_DDOT":0}]
